COSMOS 2513             
1 41121U 15075A   26119.50456447 -.00000139  00000+0  00000+0 0  9993
2 41121   0.0644  89.2938 0003238 313.2922  76.7711  1.00270902 38069
EXPRESS-AMU1            
1 41191U 15082A   26119.85237108  .00000000  00000+0  00000+0 0  9993
2 41191   0.0118 260.0559 0003029 131.3309 169.3564  1.00270850 37781
GAOFEN-4                
1 41194U 15083A   26119.86615115 -.00000335  00000+0  00000+0 0  9998
2 41194   0.3846  82.7420 0003274 133.1002  59.4918  1.00272732 38046
BELINTERSAT-1           
1 41238U 16001A   26119.85540441  .00000107  00000+0  00000+0 0  9992
2 41238   0.0230 139.7927 0002108 231.0675 206.3945  1.00270762 37754
IRNSS-1E                
1 41241U 16003A   26111.89127155 -.00000302  00000+0  00000+0 0  9995
2 41241  33.1155  60.5610 0017245 183.4571  38.5260  1.00277854 37512
EUTELSAT 9B             
1 41310U 16005A   26119.56179384  .00000061  00000+0  00000+0 0  9998
2 41310   0.0540  66.5491 0003149 299.0584  63.1737  1.00273972 37621
SES-9                   
1 41380U 16013A   26119.74211638 -.00000346  00000+0  00000+0 0  9990
2 41380   0.0175 294.9708 0002281 125.9933 172.1884  1.00272025 36958
EUTELSAT 65 WEST A      
1 41382U 16014A   26119.83226433 -.00000277  00000+0  00000+0 0  9995
2 41382   0.0634  37.5073 0002323 357.3336  57.3721  1.00272047 37040
BEIDOU-2 IGSO-6         
1 41434U 16021A   26118.74469426 -.00000183  00000+0  00000+0 0  9997
2 41434  60.1616  38.5306 0057984 232.9657 308.3929  1.00268218 36988
IRNSS-1G                
1 41469U 16027A   26119.79959087 -.00000330  00000+0  00000+0 0  9998
2 41469   5.0771  98.6089 0005934 346.3880 190.2653  1.00274407 36694
JCSAT-2B                
1 41471U 16028A   26119.80435756  .00000000  00000+0  00000+0 0  9999
2 41471   0.0166 256.9756 0000959 162.1849 242.1578  1.00269256 36645
THAICOM 8               
1 41552U 16031A   26119.71919573 -.00000122  00000+0  00000+0 0  9993
2 41552   0.0705  47.6325 0004331 345.0383 162.4535  1.00271993 36237
INTELSAT 31 (IS-31)     
1 41581U 16035A   26119.61237751 -.00000152  00000+0  00000+0 0  9992
2 41581   0.0098 233.1816 0001990  43.8922  65.8998  1.00270505 36193
BEIDOU-2 G7             
1 41586U 16037A   26119.79577751 -.00000353  00000+0  00000+0 0  9998
2 41586   1.6025  68.8571 0007261 352.1193 193.7282  1.00277244  6404
ABS-2A (MONGOLSAT-1)    
1 41588U 16038A   26119.36084076  .00000000  00000+0  00000+0 0  9995
2 41588   0.0217 249.3631 0002263 101.3599  71.2126  1.00269329 36210
EUTELSAT 117 WEST B     
1 41589U 16038B   26119.60813082 -.00000013  00000+0  00000+0 0  9995
2 41589   0.0115 104.2021 0000114   9.7527 205.5589  1.00272964 36174
BRISAT                  
1 41591U 16039A   26119.80366420 -.00000197  00000+0  00000+0 0  9993
2 41591   0.0168 267.1979 0002203 128.4448 261.9314  1.00270983 36124
ECHOSTAR 18             
1 41592U 16039B   26119.83304433  .00000000  00000+0  00000+0 0  9995
2 41592   0.0138 251.9198 0001670 156.1434  48.2495  1.00270842 36148
MUOS-5                  
1 41622U 16041A   26118.83962612 -.00000165  00000+0  00000+0 0  9993
2 41622   2.3097 300.7694 0194774 261.6082 211.7959  1.00271041 36597
TIANTONG-1 1            
1 41725U 16048A   26119.86519780 -.00000317  00000+0  00000+0 0  9991
2 41725   3.7590  42.9964 0006332  22.0677 205.6082  1.00275016 35785
JCSAT-16                
1 41729U 16050A   26119.80236420  .00000000  00000+0  00000+0 0  9997
2 41729   0.0176 256.1610 0001178 174.2333 220.1609  1.00268892 35587
USA 270                 
1 41744U 16052A   26111.25336792  .00000060  00000+0  00000+0 0  9996
2 41744   4.0526  77.8945 0003438 320.1673  82.4480  1.00347865 27569
USA 271                 
1 41745U 16052B   26110.88563977 -.00000360  00000+0  00000+0 0  9996
2 41745   4.0240  77.9674 0007317 143.7849  69.2738  1.00241576 27344
INTELSAT 36 (IS-36)     
1 41747U 16053A   26119.57358057 -.00000025  00000+0  00000+0 0  9993
2 41747   0.0172 330.7940 0001273   2.8364 158.8774  1.00271198 35475
INSAT-3DR               
1 41752U 16054A   26119.85982443 -.00000077  00000+0  00000+0 0  9990
2 41752   0.1226  86.5326 0011342 194.9624 319.8475  1.00272121 35335
GSAT-18                 
1 41793U 16060A   26119.85982443 -.00000077  00000+0  00000+0 0  9992
2 41793   0.0736  84.5255 0005300 336.0367 180.7942  1.00271851 35045
SKY MUSTER 2 (NBN1B)    
1 41794U 16060B   26119.87386450 -.00000244  00000+0  00000+0 0  9997
2 41794   0.0137 268.0459 0001693 127.4818 281.6973  1.00271675 35038
HIMAWARI-9              
1 41836U 16064A   26119.87308450 -.00000274  00000+0  00000+0 0  9995
2 41836   0.0462 105.0746 0001052 312.0782 255.7670  1.00274056 34723
SHIJIAN-17 (SJ-17)      
1 41838U 16065A   26119.83486434 -.00000274  00000+0  00000+0 0  9993
2 41838   5.6323  73.1722 0001740 353.6218  39.6652  0.99863246 34721
GOES 16                 
1 41866U 16071A   26119.61055750 -.00000092  00000+0  00000+0 0  9998
2 41866   0.2198  85.3906 0001390 258.1008 349.1589  1.00271524 34610
TIANLIAN 1-04           
1 41869U 16072A   26118.81070962  .00000028  00000+0  00000+0 0  9993
2 41869   0.7410  83.1752 0040589  91.2776 150.9806  1.00273241 34800
WGS F8 (USA 272)        
1 41879U 16075A   26119.80357755 -.00000203  00000+0  00000+0 0  9991
2 41879   0.0132 295.2240 0000181 197.2385 164.3965  1.00272259 34331
FENGYUN 4A              
1 41882U 16077A   26119.79837752 -.00000356  00000+0  00000+0 0  9994
2 41882   2.2022  80.7665 0007974 140.7870  47.2624  1.00265468 34441
ECHOSTAR 19             
1 41893U 16079A   26119.82585097  .00000000  00000+0  00000+0 0  9999
2 41893   0.0154 259.4062 0001426 144.8908  13.6863  1.00269815 34211
JCSAT-110A (JCSAT-15)   
1 41903U 16082A   26119.58181391 -.00000352  00000+0  00000+0 0  9998
2 41903   0.0133 271.5289 0000700 130.5517 134.9788  1.00272080 34275
STAR ONE D1             
1 41904U 16082B   26119.82853765 -.00000211  00000+0  00000+0 0  9991
2 41904   0.0325  92.6387 0002206 313.0210  26.4183  1.00272166 34281
TJS-2                   
1 41911U 17001A   26119.43052105 -.00000008  00000+0  00000+0 0  9991
2 41911   0.7089  85.8661 0001128 306.5465  46.5168  1.00273671 34225
SBIRS GEO-4 (USA 273)   
1 41937U 17004A   26119.84933772  .00000124  00000+0  00000+0 0  9993
2 41937   2.1538  41.9112 0002441 352.8728 149.6771  1.00272690 34110
HISPASAT 36W-1          
1 41942U 17006A   26119.83807102  .00000000  00000+0  00000+0 0  9990
2 41942   0.0059 274.9647 0001008 123.3788  85.1637  1.00269708 33768
TELKOM 3S               
1 41944U 17007A   26119.79725086  .00000000  00000+0  00000+0 0  9998
2 41944   0.0165 238.6880 0002723 176.0988 207.9624  1.00266613 33656
INTELSAT 32E (IS-32E)   
1 41945U 17007B   26119.83659769  .00000000  00000+0  00000+0 0  9998
2 41945   0.0163 263.8283 0000069 191.1394  20.8144  1.00267523 33742
ECHOSTAR 23             
1 42070U 17014A   26119.60951750  .00000000  00000+0  00000+0 0  9996
2 42070   0.0175 249.4680 0002136 153.6013 284.0204  1.00269010 33434
WGS F9 (USA 275)        
1 42075U 17016A   26119.77152321 -.00000097  00000+0  00000+0 0  9995
2 42075   0.0119 244.6071 0000445 101.6616 137.2455  1.00270604 33417
SES-10                  
1 42432U 17017A   26119.83191766 -.00000273  00000+0  00000+0 0  9992
2 42432   0.0412  51.5797 0002857 352.7572  46.0464  1.00271871 33277
CHINASAT 16 (SJ-13)     
1 42662U 17018A   26118.53303068 -.00000357  00000+0  00000+0 0  9997
2 42662   0.1023  86.9114 0004004 160.1648 271.8516  1.00273786 33258
KOREASAT 7              
1 42691U 17023A   26119.79681750 -.00000362  00000+0  00000+0 0  9997
2 42691   0.0284 356.7247 0000977  53.4901 210.2783  1.00269911 32880
SGDC                    
1 42692U 17023B   26118.60639181  .00000000  00000+0  00000+0 0  9996
2 42692   0.0185  91.4246 0002955 319.2666 309.3350  1.00270341 32915
GSAT-9                  
1 42695U 17024A   26119.79317750 -.00000287  00000+0  00000+0 0  9994
2 42695   0.0570  63.3919 0002319 336.7902 200.4469  1.00273799 32813
INMARSAT 5-F4           
1 42698U 17025A   26119.57115389  .00000000  00000+0  00000+0 0  9990
2 42698   0.0161 260.0008 0000264 163.8692  55.7932  1.00270257 32798
SES-15                  
1 42709U 17026A   26119.39178088  .00000058  00000+0  00000+0 0  9992
2 42709   0.0233 327.1359 0000770  56.7658 205.3328  1.00271771  6941
QZS-2 (MICHIBIKI-2)     
1 42738U 17028A   26116.23428738 -.00000266  00000+0  00000+0 0  9998
2 42738  39.5095 243.9120 0740318 270.8047 281.9812  1.00247520  7109
VIASAT-2                
1 42740U 17029A   26119.83131101 -.00000265  00000+0  00000+0 0  9995
2 42740   0.0164 270.2306 0000415 129.1279  47.8071  1.00272209 32714
EUTELSAT 172B           
1 42741U 17029B   26119.80791089 -.00000006  00000+0  00000+0 0  9993
2 42741   0.0205 171.0712 0000107 172.5469 336.9861  1.00272729 33257
GSAT-19                 
1 42747U 17031A   26119.85462441  .00000000  00000+0  00000+0 0  9997
2 42747   0.0144 231.8705 0007229 181.6241 159.8560  1.00271028 32666
ECHOSTAR 21             
1 42749U 17032A   26119.86364354  .00000062  00000+0  00000+0 0  9993
2 42749   1.7788 352.5736 0002515  44.1443 142.2543  1.00272816 32613
BULGARIASAT-1           
1 42801U 17038A   26119.56032051  .00000000  00000+0  00000+0 0  9993
2 42801   0.0181 108.9811 0003789 311.3086   0.8475  1.00273476 32351
HELLAS-SAT 3            
1 42814U 17040A   26119.49641778  .00000151  00000+0  00000+0 0  9991
2 42814   0.0547  62.9841 0005413 328.0816  44.1315  1.00275963 32318
GSAT-17                 
1 42815U 17040B   26119.79239750  .00000000  00000+0  00000+0 0  9991
2 42815   0.0187 254.9538 0003816  66.5777 275.0143  1.00270875 32300
INTELSAT 35E (IS-35E)   
1 42818U 17041A   26119.76701653 -.00000238  00000+0  00000+0 0  9992
2 42818   0.0071 196.3008 0002102 201.7160  61.3407  1.00271325 32335
